[{"OBJECT_NAME":"STARLINK-31432","OBJECT_ID":"2024-106L","EPOCH":"2026-03-09T21:36:19.774368","MEAN_MOTION":15.27564762,"ECCENTRICITY":0.00017264,"INCLINATION":42.9999,"RA_OF_ASC_NODE":331.4538,"ARG_OF_PERICENTER":253.5759,"MEAN_ANOMALY":106.4903,"EPHEMERIS_TYPE":0,"CLASSIFICATION_TYPE":"U","NORAD_CAT_ID":59932,"ELEMENT_SET_NO":999,"REV_AT_EPOCH":10054,"BSTAR":8.3561477e-5,"MEAN_MOTION_DOT":2.037e-5,"MEAN_MOTION_DDOT":0},{"OBJECT_NAME":"NUSAT-48 (HENRIETTA LEAVITT)","OBJECT_ID":"2024-149AG","EPOCH":"2026-03-09T19:19:17.269536","MEAN_MOTION":15.29812597,"ECCENTRICITY":0.00027538,"INCLINATION":97.3923,"RA_OF_ASC_NODE":150.8264,"ARG_OF_PERICENTER":263.3026,"MEAN_ANOMALY":96.7901,"EPHEMERIS_TYPE":0,"CLASSIFICATION_TYPE":"U","NORAD_CAT_ID":60498,"ELEMENT_SET_NO":999,"REV_AT_EPOCH":8694,"BSTAR":0.00045211745,"MEAN_MOTION_DOT":0.00012988,"MEAN_MOTION_DDOT":0}]
